{
    "type": "FeatureCollection",
    "features": [

        {
            "type": "Feature",

            "properties": {
                "id": "ZONE_01",
                "name": "Low Risk Zone",
                "risk": "LOW",
                "probability": 20
            },

            "geometry": {
                "type": "Polygon",

                "coordinates": [
                    [
                        [85.8000, 20.3600],
                        [85.8100, 20.3600],
                        [85.8100, 20.3700],
                        [85.8000, 20.3700],
                        [85.8000, 20.3600]
                    ]
                ]
            }
        },

        {
            "type": "Feature",

            "properties": {
                "id": "ZONE_02",
                "name": "Moderate Risk Zone",
                "risk": "MODERATE",
                "probability": 45
            },

            "geometry": {
                "type": "Polygon",

                "coordinates": [
                    [
                        [85.8150, 20.3450],
                        [85.8250, 20.3450],
                        [85.8250, 20.3550],
                        [85.8150, 20.3550],
                        [85.8150, 20.3450]
                    ]
                ]
            }
        },

        {
            "type": "Feature",

            "properties": {
                "id": "ZONE_03",
                "name": "High Risk Zone",
                "risk": "HIGH",
                "probability": 70
            },

            "geometry": {
                "type": "Polygon",

                "coordinates": [
                    [
                        [85.8300, 20.3300],
                        [85.8450, 20.3300],
                        [85.8450, 20.3420],
                        [85.8300, 20.3420],
                        [85.8300, 20.3300]
                    ]
                ]
            }
        },

        {
            "type": "Feature",

            "properties": {
                "id": "ZONE_04",
                "name": "Critical Risk Zone",
                "risk": "CRITICAL",
                "probability": 90
            },

            "geometry": {
                "type": "Polygon",

                "coordinates": [
                    [
                        [85.8600, 20.2750],
                        [85.8800, 20.2750],
                        [85.8800, 20.2950],
                        [85.8600, 20.2950],
                        [85.8600, 20.2750]
                    ]
                ]
            }
        }

    ]
}
